#aV2024  8  7  0  0  0.00000000     288 DD+AD WGS84 FIT  NGA
## 2326 259200.00000000   300.00000000 60529 0.0000000000000
+   31     2  3  4  5  6  7  8  9 10 11 12 13 14 15 16 17 18
+         19 20 21 22 23 24 25 26 27 28 29 30 31 32  0  0  0
+          0  0  0  0  0  0  0  0  0  0  0  0  0  0  0  0  0
+          0  0  0  0  0  0  0  0  0  0  0  0  0  0  0  0  0
+          0  0  0  0  0  0  0  0  0  0  0  0  0  0  0  0  0
++         2  2  2  2  2  2  2  2  2  2  2  2  2  2  2  2  2
++         2  2  2  2  2  2  2  2  2  2  2  2  2  2  0  0  0
++         0  0  0  0  0  0  0  0  0  0  0  0  0  0  0  0  0
++         0  0  0  0  0  0  0  0  0  0  0  0  0  0  0  0  0
++         0  0  0  0  0  0  0  0  0  0  0  0  0  0  0  0  0
%c cc cc ccc ccc cccc cccc cccc cccc ccccc ccccc ccccc ccccc
%c cc cc ccc ccc cccc cccc cccc cccc ccccc ccccc ccccc ccccc
%f  0.0000000  0.000000000  0.00000000000  0.000000000000000
%f  0.0000000  0.000000000  0.00000000000  0.000000000000000
%i    0    0    0    0      0      0      0      0         0
%i    0    0    0    0      0      0      0      0         0
/*      NGA, ST. LOUIS,MO.                                  
/*   EPHEMERIS COMPUTED FROM 2 DAYS OF DATA                 
/*   EPOCHA v9 SMOOTHER                                     
/*   G2296 IERS2010 SATIGS SATAPC                           
*  2024  8  7 12 10  0.00000000
P  2  22875.221343  13801.817179   1422.543392   -383.767470                    
V  2   -254.285089   2616.108202 -31626.671018      0.075677                    
P  3  12881.725717   9136.639040  21209.999485    490.440860                    
V  3  -4456.243566  26866.335170  -8687.096384      0.151726                    
P  4  21735.774372   3186.945836  15042.647822    419.422770                    
V  4 -17244.839766   8202.763293  23065.768708      0.075174                    
P  5  -6185.560912 -22860.554648 -12131.184304   -182.396171                    
V  5   3450.268123 -14868.485810  26737.712745     -0.012969                    
P  6   5824.951794 -13834.313225  21962.818586    113.636638                    
V  6  21736.271358  17123.068331   5137.034517     -0.240118                    
P  7  20936.566602   1898.977493 -15974.614930    -55.714608                    
V  7  15406.484496  14567.317463  20780.757000      0.062983                    
P  8  12894.215871  10537.808142 -20886.496125    306.223330                    
V  8 -23690.164575  11225.049556  -8585.607822      0.149439                    
P  9  25131.770254  -6799.393956   5310.882642    304.411330                    
V  9  -5197.378685   5236.135054  30729.212081      0.154261                    
P 10 -10411.318671  21564.512308 -10913.038137    -87.127618                    
V 10    -37.942041 -14406.767425 -28218.106001     -0.107539                    
P 11  -7865.350297 -20483.247589  15040.379654   -717.806959                    
V 11  15628.923351  10987.527363  23114.883294     -0.058755                    
P 12 -11474.701721 -12885.240231  19926.303645   -528.479062                    
V 12   6488.970325 -25106.310742 -12280.916567     -0.029876                    
P 13  -3386.133222 -14680.097102 -22091.475083    669.363416                    
V 13  26726.415489  -6431.944128    411.928783      0.022499                    
P 14  13122.520305 -18383.201406 -13753.951080    466.897857                    
V 14   -202.000677  17870.629317 -24220.785131      0.087668                    
P 15 -14191.889204  -9457.668597 -20911.496292    189.874847                    
V 15  21452.079960 -13725.831266  -8383.719234      0.043070                    
P 16   1088.596674  24672.220483  -9481.964078   -215.177132                    
V 16  -5379.864807  10775.506811  28857.655328      0.104293                    
P 17  20728.587769 -13945.114708   9678.592370    660.487074                    
V 17  11696.632901  -1689.379854 -28574.927469     -0.090460                    
P 18 -20176.186641  -1251.502867 -17322.862450   -644.068358                    
V 18 -16153.281237 -14866.039214  19660.941771     -0.033646                    
P 19  13762.092232 -15525.170318  16177.255283    521.288710                    
V 19  20753.051202  -3790.725897 -21488.327391      0.052050                    
P 20  -1845.534429 -26548.280048  -1202.190748    371.934865                    
V 20   2829.625403  -1705.908656  31467.272415     -0.004059                    
P 21  20875.562971  16748.230030  -3987.945958    104.342570                    
V 21  -5610.568878  -1327.778435 -30573.642323     -0.022031                    
P 22   9912.424660 -23975.724816  -5953.742789    -48.581862                    
V 22    651.131311   8408.012711 -30346.783620     -0.042546                    
P 23 -14421.634730  10455.528586 -19602.650851    291.814784                    
V 23   1703.731811 -24932.948201 -14738.462805      0.087157                    
P 24 -21825.800227 -15465.473518  -1824.057370   -485.681969                    
V 24   3261.526141  -1800.961770 -30780.478852     -0.009063                    
P 25 -15343.854841   -332.244372  21330.421860    499.139341                    
V 25   3089.975982 -27769.642462   2017.480969      0.002402                    
P 26  -4575.795406  25604.506994   4123.514439    105.252031                    
V 26  -3722.052003  -5732.734530  30705.080722     -0.074666                    
P 27   1025.828281  15837.158707 -21530.300082    -32.660357                    
V 27 -24974.149493   9537.361877   6321.239576     -0.006020                    
P 28  -7945.790207  12992.269118  21750.165206   -363.015422                    
V 28 -22378.852201 -16221.405187   1515.379262     -0.151614                    
P 29 -25163.210963   1923.207370   8437.257028   -585.417426                    
V 29   9554.450787  -5369.486543  29430.316475      0.021428                    
P 30  13960.805197  -8546.892312 -20802.736768   -344.235108                    
V 30  20709.826456  17051.747000   6578.101070      0.067454                    
P 31   3207.260734  19003.479209  17884.405070   -226.102319                    
V 31 -19284.243867 -13258.780570  17712.960222      0.003580                    
P 32 -18634.839571  15680.617013  10567.233444   -607.473238                    
V 32 -13127.095104   2720.028871 -27942.351214      0.026052                    
EOF
